[{"OBJECT_NAME":"ONEWEB-0566","OBJECT_ID":"2023-043R","EPOCH":"2026-05-20T13:39:49.089024","MEAN_MOTION":13.21825495,"ECCENTRICITY":0.0001644,"INCLINATION":87.9254,"RA_OF_ASC_NODE":249.4667,"ARG_OF_PERICENTER":97.8084,"MEAN_ANOMALY":262.3236,"EPHEMERIS_TYPE":0,"CLASSIFICATION_TYPE":"U","NORAD_CAT_ID":56061,"ELEMENT_SET_NO":999,"REV_AT_EPOCH":15458,"BSTAR":0.00019418,"MEAN_MOTION_DOT":9.3e-07,"MEAN_MOTION_DDOT":0.0},{"OBJECT_NAME":"ONEWEB-0568","OBJECT_ID":"2023-043S","EPOCH":"2026-05-20T12:00:02.201472","MEAN_MOTION":13.16592944,"ECCENTRICITY":0.0002226,"INCLINATION":87.9107,"RA_OF_ASC_NODE":234.2686,"ARG_OF_PERICENTER":107.449,"MEAN_ANOMALY":252.6885,"EPHEMERIS_TYPE":0,"CLASSIFICATION_TYPE":"U","NORAD_CAT_ID":56062,"ELEMENT_SET_NO":999,"REV_AT_EPOCH":15533,"BSTAR":0.00020658000000000002,"MEAN_MOTION_DOT":9.2e-07,"MEAN_MOTION_DDOT":0.0},{"OBJECT_NAME":"ONEWEB-0574","OBJECT_ID":"2023-043T","EPOCH":"2026-05-20T13:30:07.547040","MEAN_MOTION":13.21826252,"ECCENTRICITY":0.0002204,"INCLINATION":87.9263,"RA_OF_ASC_NODE":249.4683,"ARG_OF_PERICENTER":99.5888,"MEAN_ANOMALY":260.5495,"EPHEMERIS_TYPE":0,"CLASSIFICATION_TYPE":"U","NORAD_CAT_ID":56063,"ELEMENT_SET_NO":999,"REV_AT_EPOCH":15462,"BSTAR":0.00035676999999999996,"MEAN_MOTION_DOT":1.6e-06,"MEAN_MOTION_DDOT":0.0},{"OBJECT_NAME":"ONEWEB-0575","OBJECT_ID":"2023-043U","EPOCH":"2026-05-20T11:50:55.413024","MEAN_MOTION":13.1659659,"ECCENTRICITY":0.0002498,"INCLINATION":87.9109,"RA_OF_ASC_NODE":234.2664,"ARG_OF_PERICENTER":101.7711,"MEAN_ANOMALY":258.37,"EPHEMERIS_TYPE":0,"CLASSIFICATION_TYPE":"U","NORAD_CAT_ID":56064,"ELEMENT_SET_NO":999,"REV_AT_EPOCH":15532,"BSTAR":0.00037904,"MEAN_MOTION_DOT":1.58e-06,"MEAN_MOTION_DDOT":0.0},{"OBJECT_NAME":"ONEWEB-0576","OBJECT_ID":"2023-043V","EPOCH":"2026-05-20T13:13:00.922368","MEAN_MOTION":13.1659526,"ECCENTRICITY":0.0002301,"INCLINATION":87.9111,"RA_OF_ASC_NODE":234.2618,"ARG_OF_PERICENTER":101.8348,"MEAN_ANOMALY":258.3041,"EPHEMERIS_TYPE":0,"CLASSIFICATION_TYPE":"U","NORAD_CAT_ID":56065,"ELEMENT_SET_NO":999,"REV_AT_EPOCH":15532,"BSTAR":0.00014319999999999998,"MEAN_MOTION_DOT":6.8e-07,"MEAN_MOTION_DDOT":0.0},{"OBJECT_NAME":"ONEWEB-0577","OBJECT_ID":"2023-043W","EPOCH":"2026-05-20T13:22:07.495680","MEAN_MOTION":13.16595571,"ECCENTRICITY":0.000287,"INCLINATION":87.9112,"RA_OF_ASC_NODE":234.2584,"ARG_OF_PERICENTER":96.4865,"MEAN_ANOMALY":263.6593,"EPHEMERIS_TYPE":0,"CLASSIFICATION_TYPE":"U","NORAD_CAT_ID":56066,"ELEMENT_SET_NO":999,"REV_AT_EPOCH":15535,"BSTAR":0.00033419,"MEAN_MOTION_DOT":1.41e-06,"MEAN_MOTION_DDOT":0.0},{"OBJECT_NAME":"ONEWEB-0578","OBJECT_ID":"2023-043X","EPOCH":"2026-05-20T07:43:44.814144","MEAN_MOTION":13.21824771,"ECCENTRICITY":0.0002187,"INCLINATION":87.9252,"RA_OF_ASC_NODE":249.5161,"ARG_OF_PERICENTER":107.8283,"MEAN_ANOMALY":252.309,"EPHEMERIS_TYPE":0,"CLASSIFICATION_TYPE":"U","NORAD_CAT_ID":56067,"ELEMENT_SET_NO":999,"REV_AT_EPOCH":15455,"BSTAR":5.930100000000001e-05,"MEAN_MOTION_DOT":3.8e-07,"MEAN_MOTION_DDOT":0.0},{"OBJECT_NAME":"ONEWEB-0579","OBJECT_ID":"2023-043Y","EPOCH":"2026-05-20T12:58:38.351424","MEAN_MOTION":13.21825072,"ECCENTRICITY":0.0001856,"INCLINATION":87.926,"RA_OF_ASC_NODE":249.4684,"ARG_OF_PERICENTER":93.174,"MEAN_ANOMALY":266.9606,"EPHEMERIS_TYPE":0,"CLASSIFICATION_TYPE":"U","NORAD_CAT_ID":56068,"ELEMENT_SET_NO":999,"REV_AT_EPOCH":15459,"BSTAR":0.00033332,"MEAN_MOTION_DOT":1.51e-06,"MEAN_MOTION_DDOT":0.0},{"OBJECT_NAME":"ONEWEB-0581","OBJECT_ID":"2023-043Z","EPOCH":"2026-05-20T11:41:49.270848","MEAN_MOTION":13.16595145,"ECCENTRICITY":0.0002608,"INCLINATION":87.9115,"RA_OF_ASC_NODE":234.2838,"ARG_OF_PERICENTER":95.6491,"MEAN_ANOMALY":264.4937,"EPHEMERIS_TYPE":0,"CLASSIFICATION_TYPE":"U","NORAD_CAT_ID":56069,"ELEMENT_SET_NO":999,"REV_AT_EPOCH":15531,"BSTAR":0.00023178,"MEAN_MOTION_DOT":1.01e-06,"MEAN_MOTION_DDOT":0.0},{"OBJECT_NAME":"ONEWEB-0609","OBJECT_ID":"2023-043AA","EPOCH":"2026-05-20T13:44:29.385312","MEAN_MOTION":13.15547086,"ECCENTRICITY":0.0001807,"INCLINATION":87.8987,"RA_OF_ASC_NODE":264.716,"ARG_OF_PERICENTER":102.048,"MEAN_ANOMALY":258.0853,"EPHEMERIS_TYPE":0,"CLASSIFICATION_TYPE":"U","NORAD_CAT_ID":56070,"ELEMENT_SET_NO":999,"REV_AT_EPOCH":15280,"BSTAR":0.00040442,"MEAN_MOTION_DOT":1.65e-06,"MEAN_MOTION_DDOT":0.0},{"OBJECT_NAME":"ONEWEB-0613","OBJECT_ID":"2023-043AB","EPOCH":"2026-05-20T13:41:04.841952","MEAN_MOTION":13.15546052,"ECCENTRICITY":0.0001648,"INCLINATION":87.8988,"RA_OF_ASC_NODE":264.7286,"ARG_OF_PERICENTER":94.6163,"MEAN_ANOMALY":265.5156,"EPHEMERIS_TYPE":0,"CLASSIFICATION_TYPE":"U","NORAD_CAT_ID":56071,"ELEMENT_SET_NO":999,"REV_AT_EPOCH":15280,"BSTAR":0.00038126,"MEAN_MOTION_DOT":1.56e-06,"MEAN_MOTION_DDOT":0.0},{"OBJECT_NAME":"ONEWEB-0630","OBJECT_ID":"2023-043AC","EPOCH":"2026-05-20T15:23:45.699360","MEAN_MOTION":13.15550188,"ECCENTRICITY":0.0001716,"INCLINATION":87.8984,"RA_OF_ASC_NODE":264.6848,"ARG_OF_PERICENTER":94.6957,"MEAN_ANOMALY":265.4369,"EPHEMERIS_TYPE":0,"CLASSIFICATION_TYPE":"U","NORAD_CAT_ID":56072,"ELEMENT_SET_NO":999,"REV_AT_EPOCH":15280,"BSTAR":0.00051813,"MEAN_MOTION_DOT":2.08e-06,"MEAN_MOTION_DDOT":0.0},{"OBJECT_NAME":"ONEWEB-0632","OBJECT_ID":"2023-043AD","EPOCH":"2026-05-20T15:16:54.534720","MEAN_MOTION":13.15550071,"ECCENTRICITY":0.0002094,"INCLINATION":87.8987,"RA_OF_ASC_NODE":264.704,"ARG_OF_PERICENTER":97.4832,"MEAN_ANOMALY":262.6537,"EPHEMERIS_TYPE":0,"CLASSIFICATION_TYPE":"U","NORAD_CAT_ID":56073,"ELEMENT_SET_NO":999,"REV_AT_EPOCH":15280,"BSTAR":0.00056317,"MEAN_MOTION_DOT":2.25e-06,"MEAN_MOTION_DDOT":0.0},{"OBJECT_NAME":"ONEWEB-0633","OBJECT_ID":"2023-043AE","EPOCH":"2026-05-20T15:07:46.512480","MEAN_MOTION":13.15549405,"ECCENTRICITY":0.0001479,"INCLINATION":87.8995,"RA_OF_ASC_NODE":264.6784,"ARG_OF_PERICENTER":97.2351,"MEAN_ANOMALY":262.8947,"EPHEMERIS_TYPE":0,"CLASSIFICATION_TYPE":"U","NORAD_CAT_ID":56074,"ELEMENT_SET_NO":999,"REV_AT_EPOCH":15278,"BSTAR":0.00046765,"MEAN_MOTION_DOT":1.89e-06,"MEAN_MOTION_DDOT":0.0},{"OBJECT_NAME":"ONEWEB-0634","OBJECT_ID":"2023-043AF","EPOCH":"2026-05-20T14:47:14.191872","MEAN_MOTION":13.15550016,"ECCENTRICITY":0.0001869,"INCLINATION":87.8989,"RA_OF_ASC_NODE":264.7238,"ARG_OF_PERICENTER":110.5616,"MEAN_ANOMALY":249.5715,"EPHEMERIS_TYPE":0,"CLASSIFICATION_TYPE":"U","NORAD_CAT_ID":56075,"ELEMENT_SET_NO":999,"REV_AT_EPOCH":15277,"BSTAR":-8.5713e-05,"MEAN_MOTION_DOT":-1.9e-07,"MEAN_MOTION_DDOT":0.0},{"OBJECT_NAME":"ONEWEB-0635","OBJECT_ID":"2023-043AG","EPOCH":"2026-05-20T14:40:25.080096","MEAN_MOTION":13.15548671,"ECCENTRICITY":0.0002103,"INCLINATION":87.9001,"RA_OF_ASC_NODE":264.685,"ARG_OF_PERICENTER":96.3054,"MEAN_ANOMALY":263.8316,"EPHEMERIS_TYPE":0,"CLASSIFICATION_TYPE":"U","NORAD_CAT_ID":56076,"ELEMENT_SET_NO":999,"REV_AT_EPOCH":15280,"BSTAR":-5.8246e-05,"MEAN_MOTION_DOT":-9e-08,"MEAN_MOTION_DDOT":0.0}]