ONEWEB-0566             
1 56061U 23043R   26140.56931816  .00000093  00000+0  19418-3 0  9999
2 56061  87.9254 249.4667 0001644  97.8084 262.3236 13.21825495154581
ONEWEB-0568             
1 56062U 23043S   26140.50002548  .00000092  00000+0  20658-3 0  9992
2 56062  87.9107 234.2686 0002226 107.4490 252.6885 13.16592944155338
ONEWEB-0574             
1 56063U 23043T   26140.56258735  .00000160  00000+0  35677-3 0  9993
2 56063  87.9263 249.4683 0002204  99.5888 260.5495 13.21826252154629
ONEWEB-0575             
1 56064U 23043U   26140.49369691  .00000158  00000+0  37904-3 0  9992
2 56064  87.9109 234.2664 0002498 101.7711 258.3700 13.16596590155321
ONEWEB-0576             
1 56065U 23043V   26140.55070512  .00000068  00000+0  14320-3 0  9998
2 56065  87.9111 234.2618 0002301 101.8348 258.3041 13.16595260155325
ONEWEB-0577             
1 56066U 23043W   26140.55703120  .00000141  00000+0  33419-3 0  9999
2 56066  87.9112 234.2584 0002870  96.4865 263.6593 13.16595571155352
ONEWEB-0578             
1 56067U 23043X   26140.32204646  .00000038  00000+0  59301-4 0  9998
2 56067  87.9252 249.5161 0002187 107.8283 252.3090 13.21824771154551
ONEWEB-0579             
1 56068U 23043Y   26140.54072166  .00000151  00000+0  33332-3 0  9994
2 56068  87.9260 249.4684 0001856  93.1740 266.9606 13.21825072154590
ONEWEB-0581             
1 56069U 23043Z   26140.48737582  .00000101  00000+0  23178-3 0  9990
2 56069  87.9115 234.2838 0002608  95.6491 264.4937 13.16595145155319
ONEWEB-0609             
1 56070U 23043AA  26140.57256233  .00000165  00000+0  40442-3 0  9994
2 56070  87.8987 264.7160 0001807 102.0480 258.0853 13.15547086152801
ONEWEB-0613             
1 56071U 23043AB  26140.57019493  .00000156  00000+0  38126-3 0  9996
2 56071  87.8988 264.7286 0001648  94.6163 265.5156 13.15546052152800
ONEWEB-0630             
1 56072U 23043AC  26140.64150115  .00000208  00000+0  51813-3 0  9998
2 56072  87.8984 264.6848 0001716  94.6957 265.4369 13.15550188152807
ONEWEB-0632             
1 56073U 23043AD  26140.63674230  .00000225  00000+0  56317-3 0  9990
2 56073  87.8987 264.7040 0002094  97.4832 262.6537 13.15550071152806
ONEWEB-0633             
1 56074U 23043AE  26140.63039945  .00000189  00000+0  46765-3 0  9994
2 56074  87.8995 264.6784 0001479  97.2351 262.8947 13.15549405152783
ONEWEB-0634             
1 56075U 23043AF  26140.61613648 -.00000019  00000+0 -85713-4 0  9992
2 56075  87.8989 264.7238 0001869 110.5616 249.5715 13.15550016152772
ONEWEB-0635             
1 56076U 23043AG  26140.61140139 -.00000009  00000+0 -58246-4 0  9993
2 56076  87.9001 264.6850 0002103  96.3054 263.8316 13.15548671152801
